{
  "type": "FeatureCollection",
  "features": [
    {
      "type": "Feature",
      "properties": {
        "norad_id": 33835,
        "name": "COSMOS 2251 DEB",
        "group": "cosmos-2251-debris",
        "lat": 73.94115688604877,
        "lon": 171.59677340059451,
        "alt_km": 646.0147122372446,
        "timestamp": "2025-12-26T11:25:45.583511+00:00",
        "meta_object_name": "COSMOS 2251 DEB",
        "meta_object_id": "1993-036CC",
        "meta_epoch": "2025-12-25T15:59:34.374912",
        "meta_mean_motion": 14.62370337,
        "meta_eccentricity": 0.0053708,
        "meta_inclination": 74.0572,
        "meta_ra_of_asc_node": 76.383,
        "meta_arg_of_pericenter": 126.0837,
        "meta_mean_anomaly": 24.3645,
        "meta_ephemeris_type": 0,
        "meta_classification_type": "U",
        "meta_norad_cat_id": 33835,
        "meta_element_set_no": 999,
        "meta_rev_at_epoch": 88978,
        "meta_bstar": 0.00092914,
        "meta_mean_motion_dot": 4.768e-05,
        "meta_mean_motion_ddot": 0,
        "tle_line1": "1 33835U 93036CC  25359.66637008  .00004768  00000+0  92914-3 0  9995",
        "tle_line2": "2 33835  74.0572  76.3830 0053708 126.0837  24.3645 14.62370337889786"
      },
      "geometry": {
        "type": "Point",
        "coordinates": [
          171.59677340059451,
          73.94115688604877
        ]
      }
    },
    {
      "type": "Feature",
      "properties": {
        "norad_id": 33836,
        "name": "COSMOS 2251 DEB",
        "group": "cosmos-2251-debris",
        "lat": -69.27311682338714,
        "lon": 101.17179799160435,
        "alt_km": 652.7827342296605,
        "timestamp": "2025-12-26T11:25:45.583520+00:00",
        "meta_object_name": "COSMOS 2251 DEB",
        "meta_object_id": "1993-036CD",
        "meta_epoch": "2025-12-26T02:42:29.806272",
        "meta_mean_motion": 14.79839055,
        "meta_eccentricity": 0.0022936,
        "meta_inclination": 73.9961,
        "meta_ra_of_asc_node": 232.5585,
        "meta_arg_of_pericenter": 80.6181,
        "meta_mean_anomaly": 40.9444,
        "meta_ephemeris_type": 0,
        "meta_classification_type": "U",
        "meta_norad_cat_id": 33836,
        "meta_element_set_no": 999,
        "meta_rev_at_epoch": 64286,
        "meta_bstar": 0.0010374,
        "meta_mean_motion_dot": 7.828e-05,
        "meta_mean_motion_ddot": 0,
        "tle_line1": "1 33836U 93036CD  25360.11284498  .00007828  00000+0  10374-2 0  9998",
        "tle_line2": "2 33836  73.9961 232.5585 0022936  80.6181  40.9444 14.79839055642868"
      },
      "geometry": {
        "type": "Point",
        "coordinates": [
          101.17179799160435,
          -69.27311682338714
        ]
      }
    },
    {
      "type": "Feature",
      "properties": {
        "norad_id": 33837,
        "name": "COSMOS 2251 DEB",
        "group": "cosmos-2251-debris",
        "lat": -57.98914978770935,
        "lon": -122.96567646503,
        "alt_km": 704.7563572122372,
        "timestamp": "2025-12-26T11:25:45.583529+00:00",
        "meta_object_name": "COSMOS 2251 DEB",
        "meta_object_id": "1993-036CE",
        "meta_epoch": "2025-12-26T03:41:45.569760",
        "meta_mean_motion": 14.50728432,
        "meta_eccentricity": 0.0035862,
        "meta_inclination": 74.0122,
        "meta_ra_of_asc_node": 30.3422,
        "meta_arg_of_pericenter": 249.9415,
        "meta_mean_anomaly": 109.7884,
        "meta_ephemeris_type": 0,
        "meta_classification_type": "U",
        "meta_norad_cat_id": 33837,
        "meta_element_set_no": 999,
        "meta_rev_at_epoch": 88990,
        "meta_bstar": 0.00024128,
        "meta_mean_motion_dot": 9.28e-06,
        "meta_mean_motion_ddot": 0,
        "tle_line1": "1 33837U 93036CE  25360.15399965  .00000928  00000+0  24128-3 0  9996",
        "tle_line2": "2 33837  74.0122  30.3422 0035862 249.9415 109.7884 14.50728432889901"
      },
      "geometry": {
        "type": "Point",
        "coordinates": [
          -122.96567646503,
          -57.98914978770935
        ]
      }
    },
    {
      "type": "Feature",
      "properties": {
        "norad_id": 33838,
        "name": "COSMOS 2251 DEB",
        "group": "cosmos-2251-debris",
        "lat": -0.674197402256708,
        "lon": 123.89577991376454,
        "alt_km": 741.8965791504052,
        "timestamp": "2025-12-26T11:25:45.583538+00:00",
        "meta_object_name": "COSMOS 2251 DEB",
        "meta_object_id": "1993-036CF",
        "meta_epoch": "2025-12-25T19:25:45.372288",
        "meta_mean_motion": 14.48403087,
        "meta_eccentricity": 0.00274806,
        "meta_inclination": 74.0365,
        "meta_ra_of_asc_node": 125.3369,
        "meta_arg_of_pericenter": 245.478,
        "meta_mean_anomaly": 238.8832,
        "meta_ephemeris_type": 0,
        "meta_classification_type": "U",
        "meta_norad_cat_id": 33838,
        "meta_element_set_no": 999,
        "meta_rev_at_epoch": 88758,
        "meta_bstar": 0.00045471121,
        "meta_mean_motion_dot": 1.684e-05,
        "meta_mean_motion_ddot": 0,
        "tle_line1": "1 33838U 93036CF  25359.80955292  .00001684  00000+0  45471-3 0  9992",
        "tle_line2": "2 33838  74.0365 125.3369 0027480 245.4780 238.8832 14.48403087887581"
      },
      "geometry": {
        "type": "Point",
        "coordinates": [
          123.89577991376454,
          -0.674197402256708
        ]
      }
    },
    {
      "type": "Feature",
      "properties": {
        "norad_id": 33839,
        "name": "COSMOS 2251 DEB",
        "group": "cosmos-2251-debris",
        "lat": -0.4797914734240363,
        "lon": 179.94754128301477,
        "alt_km": 661.0721629795307,
        "timestamp": "2025-12-26T11:25:45.583549+00:00",
        "meta_object_name": "COSMOS 2251 DEB",
        "meta_object_id": "1993-036CG",
        "meta_epoch": "2025-12-25T12:37:08.860800",
        "meta_mean_motion": 14.64450648,
        "meta_eccentricity": 0.0085374,
        "meta_inclination": 74.0373,
        "meta_ra_of_asc_node": 181.9107,
        "meta_arg_of_pericenter": 291.0826,
        "meta_mean_anomaly": 99.0176,
        "meta_ephemeris_type": 0,
        "meta_classification_type": "U",
        "meta_norad_cat_id": 33839,
        "meta_element_set_no": 999,
        "meta_rev_at_epoch": 89767,
        "meta_bstar": 0.00022045,
        "meta_mean_motion_dot": 1.196e-05,
        "meta_mean_motion_ddot": 0,
        "tle_line1": "1 33839U 93036CG  25359.52579700  .00001196  00000+0  22045-3 0  9998",
        "tle_line2": "2 33839  74.0373 181.9107 0085374 291.0826  99.0176 14.64450648897675"
      },
      "geometry": {
        "type": "Point",
        "coordinates": [
          179.94754128301477,
          -0.4797914734240363
        ]
      }
    },
    {
      "type": "Feature",
      "properties": {
        "norad_id": 33841,
        "name": "COSMOS 2251 DEB",
        "group": "cosmos-2251-debris",
        "lat": -35.0675763560034,
        "lon": 84.3425282599827,
        "alt_km": 777.5147005907065,
        "timestamp": "2025-12-26T11:25:45.583558+00:00",
        "meta_object_name": "COSMOS 2251 DEB",
        "meta_object_id": "1993-036CJ",
        "meta_epoch": "2025-12-26T04:27:44.479008",
        "meta_mean_motion": 14.37878703,
        "meta_eccentricity": 0.0021065,
        "meta_inclination": 74.0372,
        "meta_ra_of_asc_node": 253.2859,
        "meta_arg_of_pericenter": 331.2395,
        "meta_mean_anomaly": 183.5381,
        "meta_ephemeris_type": 0,
        "meta_classification_type": "U",
        "meta_norad_cat_id": 33841,
        "meta_element_set_no": 999,
        "meta_rev_at_epoch": 88307,
        "meta_bstar": 0.00019795,
        "meta_mean_motion_dot": 5.72e-06,
        "meta_mean_motion_ddot": 0,
        "tle_line1": "1 33841U 93036CJ  25360.18593147  .00000572  00000+0  19795-3 0  9991",
        "tle_line2": "2 33841  74.0372 253.2859 0021065 331.2395 183.5381 14.37878703883071"
      },
      "geometry": {
        "type": "Point",
        "coordinates": [
          84.3425282599827,
          -35.0675763560034
        ]
      }
    },
    {
      "type": "Feature",
      "properties": {
        "norad_id": 33842,
        "name": "COSMOS 2251 DEB",
        "group": "cosmos-2251-debris",
        "lat": -8.647715320306759,
        "lon": -168.34135037160505,
        "alt_km": 732.3726217792691,
        "timestamp": "2025-12-26T11:25:45.583567+00:00",
        "meta_object_name": "COSMOS 2251 DEB",
        "meta_object_id": "1993-036CK",
        "meta_epoch": "2025-12-25T22:09:25.799328",
        "meta_mean_motion": 14.42721361,
        "meta_eccentricity": 0.0047603,
        "meta_inclination": 74.0315,
        "meta_ra_of_asc_node": 195.1808,
        "meta_arg_of_pericenter": 299.9078,
        "meta_mean_anomaly": 59.7354,
        "meta_ephemeris_type": 0,
        "meta_classification_type": "U",
        "meta_norad_cat_id": 33842,
        "meta_element_set_no": 999,
        "meta_rev_at_epoch": 88527,
        "meta_bstar": 0.00025367,
        "meta_mean_motion_dot": 8.29e-06,
        "meta_mean_motion_ddot": 0,
        "tle_line1": "1 33842U 93036CK  25359.92321527  .00000829  00000+0  25367-3 0  9990",
        "tle_line2": "2 33842  74.0315 195.1808 0047603 299.9078  59.7354 14.42721361885272"
      },
      "geometry": {
        "type": "Point",
        "coordinates": [
          -168.34135037160505,
          -8.647715320306759
        ]
      }
    }
  ]
}